[{"OBJECT_NAME":"HYSIS","OBJECT_ID":"2018-096A","EPOCH":"2026-03-09T22:32:30.412896","MEAN_MOTION":14.78659343,"ECCENTRICITY":0.00017686,"INCLINATION":97.9936,"RA_OF_ASC_NODE":136.421,"ARG_OF_PERICENTER":97.9105,"MEAN_ANOMALY":262.2306,"EPHEMERIS_TYPE":0,"CLASSIFICATION_TYPE":"U","NORAD_CAT_ID":43719,"ELEMENT_SET_NO":999,"REV_AT_EPOCH":39275,"BSTAR":0.00023971552,"MEAN_MOTION_DOT":1.705e-5,"MEAN_MOTION_DDOT":0},{"OBJECT_NAME":"COSMOS 2251 DEB","OBJECT_ID":"1993-036CG","EPOCH":"2026-03-09T21:52:20.100000","MEAN_MOTION":14.64723626,"ECCENTRICITY":0.00829102,"INCLINATION":74.0391,"RA_OF_ASC_NODE":38.9327,"ARG_OF_PERICENTER":130.2267,"MEAN_ANOMALY":261.3281,"EPHEMERIS_TYPE":0,"CLASSIFICATION_TYPE":"U","NORAD_CAT_ID":33839,"ELEMENT_SET_NO":999,"REV_AT_EPOCH":90856,"BSTAR":0.00027466487,"MEAN_MOTION_DOT":1.506e-5,"MEAN_MOTION_DDOT":0}]
